CTC2_L_00591007-03
1 44372U 24231KM  26070.40851852  .00000000  00000+0  00000-0 0  9999
2 44372  55.0000 180.0000 0000000   0.0000 144.0000  6.70625815    11
CTC2_L_00591007-04
1 44373U 25326RZ  26070.40851852  .00000000  00000+0  00000-0 0  9996
2 44373  55.0000 180.0000 0000000   0.0000 180.0000  6.70625815    12
CTC2_L_00591007-05
1 44374U 26755JQ  26070.40851852  .00000000  00000+0  00000-0 0  9994
2 44374  55.0000 180.0000 0000000   0.0000 216.0000  6.70625815    13
CTC2_L_00591007-06
1 44375U 25201HV  26070.40851852  .00000000  00000+0  00000-0 0  9990
2 44375  55.0000 180.0000 0000000   0.0000 252.0000  6.70625815    14
CTC2_L_00591007-07
1 44376U 22896R   26070.40851852  .00000000  00000+0  00000-0 0  9998
2 44376  55.0000 180.0000 0000000   0.0000 288.0000  6.70625815    14
CTC2_L_00591007-08
1 44377U 24459YL  26070.40851852  .00000000  00000+0  00000-0 0  9996
2 44377  55.0000 180.0000 0000000   0.0000 324.0000  6.70625815    16
CTC2_L_00591007-09
1 44378U 22139IJ  26070.40851852  .00000000  00000+0  00000-0 0  9990
2 44378  55.0000 180.0000 0000000   0.0000   0.0000  6.70625815    18
CTC2_L_00591007-10
1 44379U 25316FI  26070.40851852  .00000000  00000+0  00000-0 0  9991
2 44379  55.0000 180.0000 0000000   0.0000  36.0000  6.70625815    18
CTC2_L_00591008-01
1 44380U 25542IR  26070.40851852  .00000000  00000+0  00000-0 0  9994
2 44380  55.0000 210.0000 0000000   0.0000  84.0000  6.70625815    17
CTC2_L_00591008-02
1 44381U 26462AM  26070.40851852  .00000000  00000+0  00000-0 0  9997
2 44381  55.0000 210.0000 0000000   0.0000 120.0000  6.70625815    19
CTC2_L_00591008-03
1 44382U 22545FL  26070.40851852  .00000000  00000+0  00000-0 0  9996
2 44382  55.0000 210.0000 0000000   0.0000 156.0000  6.70625815    19
CTC2_L_00591008-04
1 44383U 24809G   26070.40851852  .00000000  00000+0  00000-0 0  9992
2 44383  55.0000 210.0000 0000000   0.0000 192.0000  6.70625815    10
CTC2_L_00591008-05
1 44384U 22178KS  26070.40851852  .00000000  00000+0  00000-0 0  9990
2 44384  55.0000 210.0000 0000000   0.0000 228.0000  6.70625815    11
CTC2_L_00591008-06
1 44385U 24449YB  26070.40851852  .00000000  00000+0  00000-0 0  9994
2 44385  55.0000 210.0000 0000000   0.0000 264.0000  6.70625815    12
CTC2_L_00591008-07
1 44386U 25137VK  26070.40851852  .00000000  00000+0  00000-0 0  9990
2 44386  55.0000 210.0000 0000000   0.0000 300.0000  6.70625815    14
CTC2_L_00591008-08
1 44387U 25451LN  26070.40851852  .00000000  00000+0  00000-0 0  9990
2 44387  55.0000 210.0000 0000000   0.0000 336.0000  6.70625815    14
CTC2_L_00591008-09
1 44388U 22809CH  26070.40851852  .00000000  00000+0  00000-0 0  9995
2 44388  55.0000 210.0000 0000000   0.0000  12.0000  6.70625815    16
CTC2_L_00591008-10
1 44389U 26067VM  26070.40851852  .00000000  00000+0  00000-0 0  9996
2 44389  55.0000 210.0000 0000000   0.0000  48.0000  6.70625815    16
CTC2_L_00591009-01
1 44390U 22967TC  26070.40851852  .00000000  00000+0  00000-0 0  9993
2 44390  55.0000 240.0000 0000000   0.0000  96.0000  6.70625815    14
CTC2_L_00591009-02
1 44391U 23789SA  26070.40851852  .00000000  00000+0  00000-0 0  9997
2 44391  55.0000 240.0000 0000000   0.0000 132.0000  6.70625815    16
CTC2_L_00591009-03
1 44392U 26026MJ  26070.40851852  .00000000  00000+0  00000-0 0  9995
2 44392  55.0000 240.0000 0000000   0.0000 168.0000  6.70625815    16
CTC2_L_00591009-04
1 44393U 26446UM  26070.40851852  .00000000  00000+0  00000-0 0  9992
2 44393  55.0000 240.0000 0000000   0.0000 204.0000  6.70625815    18
CTC2_L_00591009-05
1 44394U 25108FC  26070.40851852  .00000000  00000+0  00000-0 0  9997
2 44394  55.0000 240.0000 0000000   0.0000 240.0000  6.70625815    19
CTC2_L_00591009-06
1 44395U 22010GK  26070.40851852  .00000000  00000+0  00000-0 0  9997
2 44395  55.0000 240.0000 0000000   0.0000 276.0000  6.70625815    19
CTC2_L_00591009-07
1 44396U 22031GP  26070.40851852  .00000000  00000+0  00000-0 0  9991
2 44396  55.0000 240.0000 0000000   0.0000 312.0000  6.70625815    11
CTC2_L_00591009-08
1 44397U 24342XC  26070.40851852  .00000000  00000+0  00000-0 0  9999
2 44397  55.0000 240.0000 0000000   0.0000 348.0000  6.70625815    11
CTC2_L_00591009-09
1 44398U 23224MT  26070.40851852  .00000000  00000+0  00000-0 0  9998
2 44398  55.0000 240.0000 0000000   0.0000  24.0000  6.70625815    13
CTC2_L_00591009-10
1 44399U 25363AT  26070.40851852  .00000000  00000+0  00000-0 0  9995
2 44399  55.0000 240.0000 0000000   0.0000  60.0000  6.70625815    14
CTC2_L_00591010-01
1 44400U 24747DS  26070.40851852  .00000000  00000+0  00000-0 0  9993
2 44400  55.0000 270.0000 0000000   0.0000 108.0000  6.70625815    13
CTC2_L_00591010-02
1 44401U 24531MG  26070.40851852  .00000000  00000+0  00000-0 0  9995
2 44401  55.0000 270.0000 0000000   0.0000 144.0000  6.70625815    14
CTC2_L_00591010-03
1 44402U 22100VT  26070.40851852  .00000000  00000+0  00000-0 0  9996
2 44402  55.0000 270.0000 0000000   0.0000 180.0000  6.70625815    15
CTC2_L_00591010-04
1 44403U 22220ER  26070.40851852  .00000000  00000+0  00000-0 0  9990
2 44403  55.0000 270.0000 0000000   0.0000 216.0000  6.70625815    16
CTC2_L_00591010-05
1 44404U 25108IN  26070.40851852  .00000000  00000+0  00000-0 0  9999
2 44404  55.0000 270.0000 0000000   0.0000 252.0000  6.70625815    17
CTC2_L_00591010-06
1 44405U 25938BV  26070.40851852  .00000000  00000+0  00000-0 0  9991
2 44405  55.0000 270.0000 0000000   0.0000 288.0000  6.70625815    17
CTC2_L_00591010-07
1 44406U 22842BD  26070.40851852  .00000000  00000+0  00000-0 0  9993
2 44406  55.0000 270.0000 0000000   0.0000 324.0000  6.70625815    19
CTC2_L_00591010-08
1 44407U 25418EK  26070.40851852  .00000000  00000+0  00000-0 0  9996
2 44407  55.0000 270.0000 0000000   0.0000   0.0000  6.70625815    11
CTC2_L_00591010-09
1 44408U 24742EC  26070.40851852  .00000000  00000+0  00000-0 0  9996
2 44408  55.0000 270.0000 0000000   0.0000  36.0000  6.70625815    11
CTC2_L_00591010-10
1 44409U 26101TK  26070.40851852  .00000000  00000+0  00000-0 0  9998
2 44409  55.0000 270.0000 0000000   0.0000  72.0000  6.70625815    12
CTC2_L_00591011-01
1 44410U 23597S   26070.40851852  .00000000  00000+0  00000-0 0  9996
2 44410  55.0000 300.0000 0000000   0.0000 120.0000  6.70625815    12
CTC2_L_00591011-02
1 44411U 24703HL  26070.40851852  .00000000  00000+0  00000-0 0  9997
2 44411  55.0000 300.0000 0000000   0.0000 156.0000  6.70625815    12
CTC2_L_00591011-03
1 44412U 24737HQ  26070.40851852  .00000000  00000+0  00000-0 0  9995
2 44412  55.0000 300.0000 0000000   0.0000 192.0000  6.70625815    13
CTC2_L_00591011-04
1 44413U 22795KI  26070.40851852  .00000000  00000+0  00000-0 0  9998
2 44413  55.0000 300.0000 0000000   0.0000 228.0000  6.70625815    14
CTC2_L_00591011-05
1 44414U 23114DQ  26070.40851852  .00000000  00000+0  00000-0 0  9995
2 44414  55.0000 300.0000 0000000   0.0000 264.0000  6.70625815    15
CTC2_L_00591011-06
1 44415U 26540RJ  26070.40851852  .00000000  00000+0  00000-0 0  9992
2 44415  55.0000 300.0000 0000000   0.0000 300.0000  6.70625815    17
CTC2_L_00591011-07
1 44416U 26331UO  26070.40851852  .00000000  00000+0  00000-0 0  9991
2 44416  55.0000 300.0000 0000000   0.0000 336.0000  6.70625815    17
CTC2_L_00591011-08
1 44417U 23909PN  26070.40851852  .00000000  00000+0  00000-0 0  9990
2 44417  55.0000 300.0000 0000000   0.0000  12.0000  6.70625815    19
CTC2_L_00591011-09
1 44418U 22997OK  26070.40851852  .00000000  00000+0  00000-0 0  9997
2 44418  55.0000 300.0000 0000000   0.0000  48.0000  6.70625815    19
CTC2_L_00591011-10
1 44419U 25090BV  26070.40851852  .00000000  00000+0  00000-0 0  9995
2 44419  55.0000 300.0000 0000000   0.0000  84.0000  6.70625815    10
CTC2_L_00591012-01
1 44420U 24238RV  26070.40851852  .00000000  00000+0  00000-0 0  9990
2 44420  55.0000 330.0000 0000000   0.0000 132.0000  6.70625815    19
CTC2_L_00591012-02
1 44421U 25666IN  26070.40851852  .00000000  00000+0  00000-0 0  9997
2 44421  55.0000 330.0000 0000000   0.0000 168.0000  6.70625815    19
CTC2_L_00591012-03
1 44422U 23454TJ  26070.40851852  .00000000  00000+0  00000-0 0  9991
2 44422  55.0000 330.0000 0000000   0.0000 204.0000  6.70625815    11
CTC2_L_00591012-04
1 44423U 23756IL  26070.40851852  .00000000  00000+0  00000-0 0  9997
2 44423  55.0000 330.0000 0000000   0.0000 240.0000  6.70625815    12
CTC2_L_00591012-05
1 44424U 23674SI  26070.40851852  .00000000  00000+0  00000-0 0  9997
2 44424  55.0000 330.0000 0000000   0.0000 276.0000  6.70625815    12
CTC2_L_00591012-06
1 44425U 23434BA  26070.40851852  .00000000  00000+0  00000-0 0  9992
2 44425  55.0000 330.0000 0000000   0.0000 312.0000  6.70625815    14
CTC2_L_00591012-07
1 44426U 22360NM  26070.40851852  .00000000  00000+0  00000-0 0  9990
2 44426  55.0000 330.0000 0000000   0.0000 348.0000  6.70625815    14
CTC2_L_00591012-08
1 44427U 22978BF  26070.40851852  .00000000  00000+0  00000-0 0  9996
2 44427  55.0000 330.0000 0000000   0.0000  24.0000  6.70625815    16
CTC2_L_00591012-09
1 44428U 24692UJ  26070.40851852  .00000000  00000+0  00000-0 0  9992
2 44428  55.0000 330.0000 0000000   0.0000  60.0000  6.70625815    17
CTC2_L_00591012-10
1 44429U 26424PB  26070.40851852  .00000000  00000+0  00000-0 0  9998
2 44429  55.0000 330.0000 0000000   0.0000  96.0000  6.70625815    17
